1 50501U 21132AJ 26162.02967167 .00000035 00000+0 54898-4 0 9990 
2 50501 87.9161 336.6829 0001726 99.1704 260.9624 13.18686095220817 
1 50502U 21132AK 26162.33335648 .00044561 00000+0 11505+0 0 9993 
2 50502 87.9171 336.5979 0002056 110.3813 77.4216 13.17132075 5203 
1 50503U 21132AL 26162.20165696 .00000064 00000+0 12912-3 0 9991 
2 50503 87.9168 336.6444 0001641 82.8445 277.2874 13.18684880220780 
1 50504U 21132AM 26162.19505834 .00000066 00000+0 13530-3 0 9991 
2 50504 87.9157 336.6514 0001664 93.9986 266.1336 13.18685818220811 
1 51622U 22012A 26162.06644785 .00000029 00000+0 40480-4 0 9990 
2 51622 87.9146 7.0743 0003149 79.5524 280.5962 13.17647956212896 
1 51623U 22012B 26162.20981445 -.00000429 00000+0 -12663-2 0 9990 
2 51623 87.8842 37.4569 0001559 99.2963 260.8341 13.10370072208501 
1 51624U 22012C 26162.20650157 -.00000309 00000+0 -92174-3 0 9997 
2 51624 87.8837 37.4568 0001766 90.3442 269.7887 13.10369911208502 
1 51625U 22012D 26162.14176392 -.00000640 00000+0 -18705-2 0 9990 
2 51625 87.8836 37.4880 0001981 94.9052 265.2301 13.10373047208535 
1 51626U 22012E 26162.07657837 .00000033 00000+0 52441-4 0 9992 
2 51626 87.9143 7.0737 0001258 77.7595 282.3678 13.17648167213000 
1 51627U 22012F 26162.06983353 .00000010 00000+0 -77926-5 0 9999 
2 51627 87.9140 7.0809 0001924 83.9430 276.1921 13.17649625212893 
1 51628U 22012G 26162.15172949 -.00000428 00000+0 -12625-2 0 9997 
2 51628 87.8841 37.4695 0002110 78.1495 281.9869 13.10375349208539 
1 51629U 22012H 26162.20815690 -.00000349 00000+0 -10362-2 0 9999 
2 51629 87.8833 37.4653 0001770 80.8412 279.2915 13.10370215208501 
1 51630U 22012J 26162.17816400 .00003499 00000+0 99847-2 0 9999 
2 51630 87.8840 37.4636 0001703 94.0823 266.0499 13.10359381208558 
1 51631U 22012K 26162.15518369 -.00000275 00000+0 -82398-3 0 9996 
2 51631 87.8845 37.4932 0002376 74.1095 286.0294 13.10375237208531 
1 51632U 22012L 26162.16333507 .00000135 00000+0 35046-3 0 9998 
2 51632 87.8838 37.4782 0001442 79.5294 280.5996 13.10374429208529 
1 51633U 22012M 26162.13731924 .00000094 00000+0 20968-3 0 9992 
2 51633 87.9145 7.0489 0001640 86.8424 273.2895 13.17648942212887 
