[{"OBJECT_NAME":"ONEWEB-0430","OBJECT_ID":"2021-132AJ","EPOCH":"2026-06-11T00:42:43.632288","MEAN_MOTION":13.18686095,"ECCENTRICITY":0.0001726,"INCLINATION":87.9161,"RA_OF_ASC_NODE":336.6829,"ARG_OF_PERICENTER":99.1704,"MEAN_ANOMALY":260.9624,"EPHEMERIS_TYPE":0,"CLASSIFICATION_TYPE":"U","NORAD_CAT_ID":50501,"ELEMENT_SET_NO":999,"REV_AT_EPOCH":22081,"BSTAR":5.4898e-05,"MEAN_MOTION_DOT":3.5e-07,"MEAN_MOTION_DDOT":0.0},{"OBJECT_NAME":"ONEWEB-0432","OBJECT_ID":"2021-132AK","EPOCH":"2026-06-11T08:00:01.999872","MEAN_MOTION":13.17132075,"ECCENTRICITY":0.0002056,"INCLINATION":87.9171,"RA_OF_ASC_NODE":336.5979,"ARG_OF_PERICENTER":110.3813,"MEAN_ANOMALY":77.4216,"EPHEMERIS_TYPE":0,"CLASSIFICATION_TYPE":"U","NORAD_CAT_ID":50502,"ELEMENT_SET_NO":999,"REV_AT_EPOCH":520,"BSTAR":0.11505,"MEAN_MOTION_DOT":0.00044561,"MEAN_MOTION_DDOT":0.0},{"OBJECT_NAME":"ONEWEB-0440","OBJECT_ID":"2021-132AL","EPOCH":"2026-06-11T04:50:23.161344","MEAN_MOTION":13.1868488,"ECCENTRICITY":0.0001641,"INCLINATION":87.9168,"RA_OF_ASC_NODE":336.6444,"ARG_OF_PERICENTER":82.8445,"MEAN_ANOMALY":277.2874,"EPHEMERIS_TYPE":0,"CLASSIFICATION_TYPE":"U","NORAD_CAT_ID":50503,"ELEMENT_SET_NO":999,"REV_AT_EPOCH":22078,"BSTAR":0.00012912,"MEAN_MOTION_DOT":6.4e-07,"MEAN_MOTION_DDOT":0.0},{"OBJECT_NAME":"ONEWEB-0450","OBJECT_ID":"2021-132AM","EPOCH":"2026-06-11T04:40:53.040576","MEAN_MOTION":13.18685818,"ECCENTRICITY":0.0001664,"INCLINATION":87.9157,"RA_OF_ASC_NODE":336.6514,"ARG_OF_PERICENTER":93.9986,"MEAN_ANOMALY":266.1336,"EPHEMERIS_TYPE":0,"CLASSIFICATION_TYPE":"U","NORAD_CAT_ID":50504,"ELEMENT_SET_NO":999,"REV_AT_EPOCH":22081,"BSTAR":0.0001353,"MEAN_MOTION_DOT":6.6e-07,"MEAN_MOTION_DDOT":0.0},{"OBJECT_NAME":"ONEWEB-0410","OBJECT_ID":"2022-012A","EPOCH":"2026-06-11T01:35:41.094240","MEAN_MOTION":13.17647956,"ECCENTRICITY":0.0003149,"INCLINATION":87.9146,"RA_OF_ASC_NODE":7.0743,"ARG_OF_PERICENTER":79.5524,"MEAN_ANOMALY":280.5962,"EPHEMERIS_TYPE":0,"CLASSIFICATION_TYPE":"U","NORAD_CAT_ID":51622,"ELEMENT_SET_NO":999,"REV_AT_EPOCH":21289,"BSTAR":4.048e-05,"MEAN_MOTION_DOT":2.9e-07,"MEAN_MOTION_DDOT":0.0},{"OBJECT_NAME":"ONEWEB-0411","OBJECT_ID":"2022-012B","EPOCH":"2026-06-11T05:02:07.968480","MEAN_MOTION":13.10370072,"ECCENTRICITY":0.0001559,"INCLINATION":87.8842,"RA_OF_ASC_NODE":37.4569,"ARG_OF_PERICENTER":99.2963,"MEAN_ANOMALY":260.8341,"EPHEMERIS_TYPE":0,"CLASSIFICATION_TYPE":"U","NORAD_CAT_ID":51623,"ELEMENT_SET_NO":999,"REV_AT_EPOCH":20850,"BSTAR":-0.0012663,"MEAN_MOTION_DOT":-4.29e-06,"MEAN_MOTION_DDOT":0.0},{"OBJECT_NAME":"ONEWEB-0415","OBJECT_ID":"2022-012C","EPOCH":"2026-06-11T04:57:21.735648","MEAN_MOTION":13.10369911,"ECCENTRICITY":0.0001766,"INCLINATION":87.8837,"RA_OF_ASC_NODE":37.4568,"ARG_OF_PERICENTER":90.3442,"MEAN_ANOMALY":269.7887,"EPHEMERIS_TYPE":0,"CLASSIFICATION_TYPE":"U","NORAD_CAT_ID":51624,"ELEMENT_SET_NO":999,"REV_AT_EPOCH":20850,"BSTAR":-0.00092174,"MEAN_MOTION_DOT":-3.09e-06,"MEAN_MOTION_DDOT":0.0},{"OBJECT_NAME":"ONEWEB-0416","OBJECT_ID":"2022-012D","EPOCH":"2026-06-11T03:24:08.402688","MEAN_MOTION":13.10373047,"ECCENTRICITY":0.0001981,"INCLINATION":87.8836,"RA_OF_ASC_NODE":37.488,"ARG_OF_PERICENTER":94.9052,"MEAN_ANOMALY":265.2301,"EPHEMERIS_TYPE":0,"CLASSIFICATION_TYPE":"U","NORAD_CAT_ID":51625,"ELEMENT_SET_NO":999,"REV_AT_EPOCH":20853,"BSTAR":-0.0018705,"MEAN_MOTION_DOT":-6.4e-06,"MEAN_MOTION_DDOT":0.0},{"OBJECT_NAME":"ONEWEB-0422","OBJECT_ID":"2022-012E","EPOCH":"2026-06-11T01:50:16.371168","MEAN_MOTION":13.17648167,"ECCENTRICITY":0.0001258,"INCLINATION":87.9143,"RA_OF_ASC_NODE":7.0737,"ARG_OF_PERICENTER":77.7595,"MEAN_ANOMALY":282.3678,"EPHEMERIS_TYPE":0,"CLASSIFICATION_TYPE":"U","NORAD_CAT_ID":51626,"ELEMENT_SET_NO":999,"REV_AT_EPOCH":21300,"BSTAR":5.244100000000001e-05,"MEAN_MOTION_DOT":3.3e-07,"MEAN_MOTION_DDOT":0.0},{"OBJECT_NAME":"ONEWEB-0423","OBJECT_ID":"2022-012F","EPOCH":"2026-06-11T01:40:33.616992","MEAN_MOTION":13.17649625,"ECCENTRICITY":0.0001924,"INCLINATION":87.914,"RA_OF_ASC_NODE":7.0809,"ARG_OF_PERICENTER":83.943,"MEAN_ANOMALY":276.1921,"EPHEMERIS_TYPE":0,"CLASSIFICATION_TYPE":"U","NORAD_CAT_ID":51627,"ELEMENT_SET_NO":999,"REV_AT_EPOCH":21289,"BSTAR":-7.7926e-06,"MEAN_MOTION_DOT":1e-07,"MEAN_MOTION_DDOT":0.0},{"OBJECT_NAME":"ONEWEB-0425","OBJECT_ID":"2022-012G","EPOCH":"2026-06-11T03:38:29.427936","MEAN_MOTION":13.10375349,"ECCENTRICITY":0.000211,"INCLINATION":87.8841,"RA_OF_ASC_NODE":37.4695,"ARG_OF_PERICENTER":78.1495,"MEAN_ANOMALY":281.9869,"EPHEMERIS_TYPE":0,"CLASSIFICATION_TYPE":"U","NORAD_CAT_ID":51628,"ELEMENT_SET_NO":999,"REV_AT_EPOCH":20853,"BSTAR":-0.0012625,"MEAN_MOTION_DOT":-4.28e-06,"MEAN_MOTION_DDOT":0.0},{"OBJECT_NAME":"ONEWEB-0428","OBJECT_ID":"2022-012H","EPOCH":"2026-06-11T04:59:44.756160","MEAN_MOTION":13.10370215,"ECCENTRICITY":0.000177,"INCLINATION":87.8833,"RA_OF_ASC_NODE":37.4653,"ARG_OF_PERICENTER":80.8412,"MEAN_ANOMALY":279.2915,"EPHEMERIS_TYPE":0,"CLASSIFICATION_TYPE":"U","NORAD_CAT_ID":51629,"ELEMENT_SET_NO":999,"REV_AT_EPOCH":20850,"BSTAR":-0.0010362000000000001,"MEAN_MOTION_DOT":-3.49e-06,"MEAN_MOTION_DDOT":0.0},{"OBJECT_NAME":"ONEWEB-0431","OBJECT_ID":"2022-012J","EPOCH":"2026-06-11T04:16:33.369600","MEAN_MOTION":13.10359381,"ECCENTRICITY":0.0001703,"INCLINATION":87.884,"RA_OF_ASC_NODE":37.4636,"ARG_OF_PERICENTER":94.0823,"MEAN_ANOMALY":266.0499,"EPHEMERIS_TYPE":0,"CLASSIFICATION_TYPE":"U","NORAD_CAT_ID":51630,"ELEMENT_SET_NO":999,"REV_AT_EPOCH":20855,"BSTAR":0.009984699999999999,"MEAN_MOTION_DOT":3.499e-05,"MEAN_MOTION_DDOT":0.0},{"OBJECT_NAME":"ONEWEB-0434","OBJECT_ID":"2022-012K","EPOCH":"2026-06-11T03:43:27.870816","MEAN_MOTION":13.10375237,"ECCENTRICITY":0.0002376,"INCLINATION":87.8845,"RA_OF_ASC_NODE":37.4932,"ARG_OF_PERICENTER":74.1095,"MEAN_ANOMALY":286.0294,"EPHEMERIS_TYPE":0,"CLASSIFICATION_TYPE":"U","NORAD_CAT_ID":51631,"ELEMENT_SET_NO":999,"REV_AT_EPOCH":20853,"BSTAR":-0.0008239800000000001,"MEAN_MOTION_DOT":-2.75e-06,"MEAN_MOTION_DDOT":0.0},{"OBJECT_NAME":"ONEWEB-0435","OBJECT_ID":"2022-012L","EPOCH":"2026-06-11T03:55:12.150048","MEAN_MOTION":13.10374429,"ECCENTRICITY":0.0001442,"INCLINATION":87.8838,"RA_OF_ASC_NODE":37.4782,"ARG_OF_PERICENTER":79.5294,"MEAN_ANOMALY":280.5996,"EPHEMERIS_TYPE":0,"CLASSIFICATION_TYPE":"U","NORAD_CAT_ID":51632,"ELEMENT_SET_NO":999,"REV_AT_EPOCH":20852,"BSTAR":0.00035046,"MEAN_MOTION_DOT":1.35e-06,"MEAN_MOTION_DDOT":0.0},{"OBJECT_NAME":"ONEWEB-0436","OBJECT_ID":"2022-012M","EPOCH":"2026-06-11T03:17:44.382336","MEAN_MOTION":13.17648942,"ECCENTRICITY":0.000164,"INCLINATION":87.9145,"RA_OF_ASC_NODE":7.0489,"ARG_OF_PERICENTER":86.8424,"MEAN_ANOMALY":273.2895,"EPHEMERIS_TYPE":0,"CLASSIFICATION_TYPE":"U","NORAD_CAT_ID":51633,"ELEMENT_SET_NO":999,"REV_AT_EPOCH":21288,"BSTAR":0.00020968,"MEAN_MOTION_DOT":9.4e-07,"MEAN_MOTION_DDOT":0.0}]